{
  "type": "FeatureCollection",
  "features": [
    {
      "type": "Feature",
      "properties": {
        "norad_id": 41599,
        "name": "CARTOSAT-2C",
        "group": "resource",
        "lat": -34.857877260706545,
        "lon": 58.34856781080496,
        "alt_km": 511.8781282670161,
        "timestamp": "2025-12-21T22:41:41.104936+00:00",
        "meta_object_name": "CARTOSAT-2C",
        "meta_object_id": "2016-040A",
        "meta_epoch": "2025-12-21T14:56:42.851616",
        "meta_mean_motion": 15.19192906,
        "meta_eccentricity": 0.00110513,
        "meta_inclination": 97.4755,
        "meta_ra_of_asc_node": 52.7815,
        "meta_arg_of_pericenter": 35.2404,
        "meta_mean_anomaly": 324.9559,
        "meta_ephemeris_type": 0,
        "meta_classification_type": "U",
        "meta_norad_cat_id": 41599,
        "meta_element_set_no": 999,
        "meta_rev_at_epoch": 52675,
        "meta_bstar": 0.00030192525,
        "meta_mean_motion_dot": 6.295e-05,
        "meta_mean_motion_ddot": 0,
        "tle_line1": "1 41599U 16040A   25355.62271819  .00006295  00000+0  30193-3 0  9995",
        "tle_line2": "2 41599  97.4755  52.7815 0011051  35.2404 324.9559 15.19192906526756"
      },
      "geometry": {
        "type": "Point",
        "coordinates": [
          58.34856781080496,
          -34.857877260706545
        ]
      }
    },
    {
      "type": "Feature",
      "properties": {
        "norad_id": 41601,
        "name": "SKYSAT-C1",
        "group": "resource",
        "lat": 73.16432792378968,
        "lon": -123.67232674845793,
        "alt_km": 461.19491082719014,
        "timestamp": "2025-12-21T22:41:41.104946+00:00",
        "meta_object_name": "SKYSAT-C1",
        "meta_object_id": "2016-040C",
        "meta_epoch": "2025-12-21T01:52:04.162944",
        "meta_mean_motion": 15.32727522,
        "meta_eccentricity": 0.00014088,
        "meta_inclination": 96.9809,
        "meta_ra_of_asc_node": 31.6216,
        "meta_arg_of_pericenter": 345.105,
        "meta_mean_anomaly": 15.0151,
        "meta_ephemeris_type": 0,
        "meta_classification_type": "U",
        "meta_norad_cat_id": 41601,
        "meta_element_set_no": 999,
        "meta_rev_at_epoch": 53055,
        "meta_bstar": 0.00019483176,
        "meta_mean_motion_dot": 6.086e-05,
        "meta_mean_motion_ddot": 0,
        "tle_line1": "1 41601U 16040C   25355.07782596  .00006086  00000+0  19483-3 0  9994",
        "tle_line2": "2 41601  96.9809  31.6216 0001408 345.1050  15.0151 15.32727522530552"
      },
      "geometry": {
        "type": "Point",
        "coordinates": [
          -123.67232674845793,
          73.16432792378968
        ]
      }
    },
    {
      "type": "Feature",
      "properties": {
        "norad_id": 41603,
        "name": "LAPAN-A3",
        "group": "resource",
        "lat": -33.046831436649065,
        "lon": 168.4875834645493,
        "alt_km": 476.50214689153563,
        "timestamp": "2025-12-21T22:41:41.104957+00:00",
        "meta_object_name": "LAPAN-A3",
        "meta_object_id": "2016-040E",
        "meta_epoch": "2025-12-21T13:55:32.876832",
        "meta_mean_motion": 15.31617808,
        "meta_eccentricity": 0.00088592,
        "meta_inclination": 97.1426,
        "meta_ra_of_asc_node": 352.8149,
        "meta_arg_of_pericenter": 297.8211,
        "meta_mean_anomaly": 62.2133,
        "meta_ephemeris_type": 0,
        "meta_classification_type": "U",
        "meta_norad_cat_id": 41603,
        "meta_element_set_no": 999,
        "meta_rev_at_epoch": 52761,
        "meta_bstar": 0.00011479957,
        "meta_mean_motion_dot": 3.434e-05,
        "meta_mean_motion_ddot": 0,
        "tle_line1": "1 41603U 16040E   25355.58024163  .00003434  00000+0  11480-3 0  9994",
        "tle_line2": "2 41603  97.1426 352.8149 0008859 297.8211  62.2133 15.31617808527615"
      },
      "geometry": {
        "type": "Point",
        "coordinates": [
          168.4875834645493,
          -33.046831436649065
        ]
      }
    },
    {
      "type": "Feature",
      "properties": {
        "norad_id": 41604,
        "name": "BIROS",
        "group": "resource",
        "lat": -37.96985286664756,
        "lon": -157.78632487769136,
        "alt_km": 299.77640612045707,
        "timestamp": "2025-12-21T22:41:41.104968+00:00",
        "meta_object_name": "BIROS",
        "meta_object_id": "2016-040F",
        "meta_epoch": "2025-12-21T14:14:39.097248",
        "meta_mean_motion": 15.9302995,
        "meta_eccentricity": 0.0003656,
        "meta_inclination": 97.0687,
        "meta_ra_of_asc_node": 27.4032,
        "meta_arg_of_pericenter": 133.1607,
        "meta_mean_anomaly": 226.9975,
        "meta_ephemeris_type": 0,
        "meta_classification_type": "U",
        "meta_norad_cat_id": 41604,
        "meta_element_set_no": 999,
        "meta_rev_at_epoch": 53013,
        "meta_bstar": 0.00059368863,
        "meta_mean_motion_dot": 0.00205583,
        "meta_mean_motion_ddot": 1.7814697e-05,
        "tle_line1": "1 41604U 16040F   25355.59350807  .00205583  17815-4  59369-3 0  9997",
        "tle_line2": "2 41604  97.0687  27.4032 0003656 133.1607 226.9975 15.93029950530138"
      },
      "geometry": {
        "type": "Point",
        "coordinates": [
          -157.78632487769136,
          -37.96985286664756
        ]
      }
    },
    {
      "type": "Feature",
      "properties": {
        "norad_id": 41727,
        "name": "GAOFEN-3",
        "group": "resource",
        "lat": -80.75341010710488,
        "lon": 66.61902057965561,
        "alt_km": 759.2123618581245,
        "timestamp": "2025-12-21T22:41:41.104979+00:00",
        "meta_object_name": "GAOFEN-3",
        "meta_object_id": "2016-049A",
        "meta_epoch": "2025-12-21T14:46:05.966112",
        "meta_mean_motion": 14.42215637,
        "meta_eccentricity": 0.0001234,
        "meta_inclination": 98.4031,
        "meta_ra_of_asc_node": 1.0661,
        "meta_arg_of_pericenter": 56.227,
        "meta_mean_anomaly": 303.9037,
        "meta_ephemeris_type": 0,
        "meta_classification_type": "U",
        "meta_norad_cat_id": 41727,
        "meta_element_set_no": 999,
        "meta_rev_at_epoch": 49305,
        "meta_bstar": 2.4336822e-05,
        "meta_mean_motion_dot": 3.7e-07,
        "meta_mean_motion_ddot": 0,
        "tle_line1": "1 41727U 16049A   25355.61534683  .00000037  00000+0  24337-4 0  9999",
        "tle_line2": "2 41727  98.4031   1.0661 0001234  56.2270 303.9037 14.42215637493055"
      },
      "geometry": {
        "type": "Point",
        "coordinates": [
          66.61902057965561,
          -80.75341010710488
        ]
      }
    },
    {
      "type": "Feature",
      "properties": {
        "norad_id": 41771,
        "name": "SKYSAT-C4",
        "group": "resource",
        "lat": 1.5405910980912745,
        "lon": 20.49865468219814,
        "alt_km": 442.57716372986215,
        "timestamp": "2025-12-21T22:41:41.104989+00:00",
        "meta_object_name": "SKYSAT-C4",
        "meta_object_id": "2016-058B",
        "meta_epoch": "2025-12-21T14:54:11.767392",
        "meta_mean_motion": 15.42483467,
        "meta_eccentricity": 0.00022742,
        "meta_inclination": 96.936,
        "meta_ra_of_asc_node": 20.3773,
        "meta_arg_of_pericenter": 127.7818,
        "meta_mean_anomaly": 232.3637,
        "meta_ephemeris_type": 0,
        "meta_classification_type": "U",
        "meta_norad_cat_id": 41771,
        "meta_element_set_no": 999,
        "meta_rev_at_epoch": 51804,
        "meta_bstar": 0.00029306062,
        "meta_mean_motion_dot": 0.00012621,
        "meta_mean_motion_ddot": 0,
        "tle_line1": "1 41771U 16058B   25355.62096953  .00012621  00000+0  29306-3 0  9994",
        "tle_line2": "2 41771  96.9360  20.3773 0002274 127.7818 232.3637 15.42483467518044"
      },
      "geometry": {
        "type": "Point",
        "coordinates": [
          20.49865468219814,
          1.5405910980912745
        ]
      }
    },
    {
      "type": "Feature",
      "properties": {
        "norad_id": 41772,
        "name": "SKYSAT-C5",
        "group": "resource",
        "lat": 2.0230454936948794,
        "lon": 39.06131691976401,
        "alt_km": 467.73149047253173,
        "timestamp": "2025-12-21T22:41:41.104999+00:00",
        "meta_object_name": "SKYSAT-C5",
        "meta_object_id": "2016-058C",
        "meta_epoch": "2025-12-21T14:51:29.604096",
        "meta_mean_motion": 15.34022446,
        "meta_eccentricity": 0.00037969,
        "meta_inclination": 97.0743,
        "meta_ra_of_asc_node": 38.9998,
        "meta_arg_of_pericenter": 248.9964,
        "meta_mean_anomaly": 111.0874,
        "meta_ephemeris_type": 0,
        "meta_classification_type": "U",
        "meta_norad_cat_id": 41772,
        "meta_element_set_no": 999,
        "meta_rev_at_epoch": 51652,
        "meta_bstar": 0.00022971944,
        "meta_mean_motion_dot": 7.489e-05,
        "meta_mean_motion_ddot": 0,
        "tle_line1": "1 41772U 16058C   25355.61909264  .00007489  00000+0  22972-3 0  9990",
        "tle_line2": "2 41772  97.0743  38.9998 0003796 248.9964 111.0874 15.34022446516528"
      },
      "geometry": {
        "type": "Point",
        "coordinates": [
          39.06131691976401,
          2.0230454936948794
        ]
      }
    }
  ]
}